STARLINK-1319
1 15379C 20019V   21326.15800927 -.00012814  00000-0 -85843-3 0  3269
2 15379  53.0534   8.0396 0001460  62.1474 212.5244 15.06418053    15
